1 06965U 73098A   97161.02742705 -.00000013 +00000-0 +44640-5 0  9992
2 06965 074.0539 101.1183 0024819 165.2448 194.9435 14.36188802230781
1 06965U 73098A   97162.00262332 +.00000013 +00000-0 +13352-4 0  9998
2 06965 074.0539 099.3301 0024812 163.1516 197.0465 14.36189114230927
1 06965U 73098A   97163.11713355 +.00000021 +00000-0 +15902-4 0  9999
2 06965 074.0539 097.2861 0024823 160.8533 199.3561 14.36189286231080
1 06965U 73098A   97164.09233020 +.00000009 +00000-0 +11922-4 0  9997
2 06965 074.0539 095.4977 0024631 158.9650 201.2521 14.36189262231222
1 06965U 73098A   97164.30130089  .00000012  00000-0  12998-4 0  9990
2 06965 074.0538 095.1143 0024587 158.5142 201.7050 14.36189312231256
1 06965U 73098A   97164.99786980 +.00000020 +00000-0 +15584-4 0  9995
2 06965 074.0538 093.8368 0024519 156.9768 203.2497 14.36189451231358
1 06965U 73098A   97166.11237923 +.00000041 +00000-0 +22923-4 0  9997
2 06965 074.0536 091.7926 0024458 154.6045 205.6318 14.36189798231518
1 06965U 73098A   97167.15723263 +.00000006 +00000-0 +10895-4 0  9995
2 06965 074.0534 089.8745 0024610 152.4138 207.8320 14.36189561231663
1 06965U 73098A   97168.06277123 +.00000031 +00000-0 +19526-4 0  9993
2 06965 074.0534 088.2145 0024616 150.4788 209.7757 14.36189924231797
1 06965U 73098A   97168.82899631  .00000025  00000-0  17302-4 0  9994
2 06965 074.0534 086.8092 0024610 148.8240 211.4353 14.36189951231905
1 06965U 73098A   97169.03796735 +.00000026 +00000-0 +17872-4 0  9992
2 06965 074.0534 086.4261 0024625 148.3782 211.8858 14.36189988231938
1 06965U 73098A   97170.15247646 +.00000038 +00000-0 +21849-4 0  9991
2 06965 074.0534 084.3822 0024526 145.9750 214.2979 14.36190250232099
1 06965U 73098A   97171.12767150 +.00000053 +00000-0 +26882-4 0  9995
2 06965 074.0534 082.5941 0024456 143.9475 216.3330 14.36190559232237
1 06965U 73098A   97172.03321104 +.00000009 +00000-0 +11987-4 0  9992
2 06965 074.0536 080.9337 0024525 142.0519 218.2368 14.36190241232360
1 06965U 73098A   97173.14772026 -.00000003 +00000-0 +78433-5 0  9993
2 06965 074.0537 078.8903 0024176 139.8029 220.4918 14.36190215232523
1 06965U 73098A   97173.21737709 -.00000003  00000-0  78177-5 0  9995
2 06965 074.0537 078.7626 0024178 139.6600 220.6352 14.36190218232537
1 06965U 73098A   97174.12291581 -.00000005 +00000-0 +71042-5 0  9995
2 06965 074.0537 077.1020 0024152 137.6804 222.6217 14.36190241232666
1 06965U 73098A   97175.16776780 +.00000002 +00000-0 +94290-5 0  9995
2 06965 074.0536 075.1858 0024161 135.5645 224.7456 14.36190367232816
